STARLINK-36704
1 67697U 26025E   26090.83335647 -.01914644  00000+0 -54864-1 0  9994
2 67697  97.2859 203.2096 0001629  72.3034  16.4175 15.39313349  5938
